FLYING LAPTOP           
1 42831U 17042G   26116.85314734  .00004782  00000+0  37966-3 0  9997
2 42831  97.4460 274.4458 0018029 300.3418  59.6023 15.00817692478758
HAWK-A                  
1 43765U 18099H   26116.68513722  .00009592  00000+0  39169-3 0  9997
2 43765  97.3964 169.6065 0037074 106.6395 253.8918 15.23962145405259
HAWK-B                  
1 43794U 18099AN  26116.71168966  .00008371  00000+0  36174-3 0  9996
2 43794  97.4012 169.1533 0034014 123.0271 237.4241 15.22193212405200
HAWK-C                  
1 43799U 18099AT  26116.71049105  .00011285  00000+0  41350-3 0  9994
2 43799  97.3941 170.2958 0042923 107.4397 253.1541 15.27281822406054
SALSAT                  
1 46495U 20068K   26116.45847697  .00009547  00000+0  34104-3 0  9999
2 46495  97.8864 116.4064 0011542 119.6725 240.5665 15.29015639307456
HAWK-2C                 
1 47502U 21006CT  26116.63088513  .00007889  00000+0  24172-3 0  9997
2 47502  97.2332 161.9811 0007708  39.3499 320.8303 15.34031402291590
HAWK-2A                 
1 47505U 21006CW  26116.69906556  .00007915  00000+0  24242-3 0  9990
2 47505  97.2375 162.6953 0007386  43.3437 316.8386 15.34044659291600
HAWK-2B                 
1 47508U 21006CZ  26116.69614287  .00009034  00000+0  27627-3 0  9994
2 47508  97.2246 161.1088 0007866  40.2481 319.9343 15.34049493291609
HAWK-3B                 
1 48931U 21059BE  26116.48540528  .00058453  00000+0  58338-3 0  9998
2 48931  97.6706 308.4684 0006068 153.2336 206.9237 15.65443847269753
HAWK-3C                 
1 48948U 21059BX  26116.80468514  .00044559  00000+0  44548-3 0  9996
2 48948  97.6837 314.4097 0006461 150.9919 209.1700 15.65456414269809
HAWK-3A                 
1 48957U 21059CG  26116.80455985  .00044926  00000+0  44907-3 0  9991
2 48957  97.6779 311.6567 0006169 150.8386 209.3218 15.65461804269802
HAWK-5C                 
1 52754U 22057Y   26116.86374500  .00020693  00000+0  37693-3 0  9998
2 52754  97.6523 273.3258 0003710 243.2970 116.7901 15.49509549218394
HAWK-5B                 
1 52756U 22057AA  26116.66988132  .00023559  00000+0  42875-3 0  9992
2 52756  97.6528 271.4631 0003906 239.0789 121.0077 15.49507296218360
HAWK-5A                 
1 52757U 22057AB  26116.86337130  .00020866  00000+0  38002-3 0  9996
2 52757  97.6526 272.5021 0004139 240.9018 119.1819 15.49509696218390
HAWK-6B                 
1 55324U 23011A   26116.76333233  .00006136  00000+0  26770-3 0  9992
2 55324  40.4992 291.9028 0002653   0.6822 359.3990 15.22458593180005
HAWK-6C                 
1 55326U 23011C   26116.82829894  .00005474  00000+0  23972-3 0  9999
2 55326  40.4981 288.3686 0003264 348.5942  11.4793 15.22461106180024
HAWK-6A                 
1 55327U 23011D   26116.82833267  .00005461  00000+0  23917-3 0  9994
2 55327  40.4991 289.9879 0002997 344.7862  15.2857 15.22459887180024
