[{"OBJECT_NAME":"FLYING LAPTOP","OBJECT_ID":"2017-042G","EPOCH":"2026-04-26T20:28:31.930176","MEAN_MOTION":15.00817692,"ECCENTRICITY":0.0018029,"INCLINATION":97.446,"RA_OF_ASC_NODE":274.4458,"ARG_OF_PERICENTER":300.3418,"MEAN_ANOMALY":59.6023,"EPHEMERIS_TYPE":0,"CLASSIFICATION_TYPE":"U","NORAD_CAT_ID":42831,"ELEMENT_SET_NO":999,"REV_AT_EPOCH":47875,"BSTAR":0.00037966,"MEAN_MOTION_DOT":4.782e-5,"MEAN_MOTION_DDOT":0},{"OBJECT_NAME":"HAWK-A","OBJECT_ID":"2018-099H","EPOCH":"2026-04-26T16:26:35.855808","MEAN_MOTION":15.23962145,"ECCENTRICITY":0.0037074,"INCLINATION":97.3964,"RA_OF_ASC_NODE":169.6065,"ARG_OF_PERICENTER":106.6395,"MEAN_ANOMALY":253.8918,"EPHEMERIS_TYPE":0,"CLASSIFICATION_TYPE":"U","NORAD_CAT_ID":43765,"ELEMENT_SET_NO":999,"REV_AT_EPOCH":40525,"BSTAR":0.00039169,"MEAN_MOTION_DOT":9.592e-5,"MEAN_MOTION_DDOT":0},{"OBJECT_NAME":"HAWK-B","OBJECT_ID":"2018-099AN","EPOCH":"2026-04-26T17:04:49.986624","MEAN_MOTION":15.22193212,"ECCENTRICITY":0.0034014,"INCLINATION":97.4012,"RA_OF_ASC_NODE":169.1533,"ARG_OF_PERICENTER":123.0271,"MEAN_ANOMALY":237.4241,"EPHEMERIS_TYPE":0,"CLASSIFICATION_TYPE":"U","NORAD_CAT_ID":43794,"ELEMENT_SET_NO":999,"REV_AT_EPOCH":40520,"BSTAR":0.00036174,"MEAN_MOTION_DOT":8.371e-5,"MEAN_MOTION_DDOT":0},{"OBJECT_NAME":"HAWK-C","OBJECT_ID":"2018-099AT","EPOCH":"2026-04-26T17:03:06.426720","MEAN_MOTION":15.27281822,"ECCENTRICITY":0.0042923,"INCLINATION":97.3941,"RA_OF_ASC_NODE":170.2958,"ARG_OF_PERICENTER":107.4397,"MEAN_ANOMALY":253.1541,"EPHEMERIS_TYPE":0,"CLASSIFICATION_TYPE":"U","NORAD_CAT_ID":43799,"ELEMENT_SET_NO":999,"REV_AT_EPOCH":40605,"BSTAR":0.0004135,"MEAN_MOTION_DOT":0.00011285,"MEAN_MOTION_DDOT":0},{"OBJECT_NAME":"SALSAT","OBJECT_ID":"2020-068K","EPOCH":"2026-04-26T11:00:12.410208","MEAN_MOTION":15.29015639,"ECCENTRICITY":0.00115423,"INCLINATION":97.8864,"RA_OF_ASC_NODE":116.4064,"ARG_OF_PERICENTER":119.6725,"MEAN_ANOMALY":240.5665,"EPHEMERIS_TYPE":0,"CLASSIFICATION_TYPE":"U","NORAD_CAT_ID":46495,"ELEMENT_SET_NO":999,"REV_AT_EPOCH":30745,"BSTAR":0.00034104261,"MEAN_MOTION_DOT":9.547e-5,"MEAN_MOTION_DDOT":0},{"OBJECT_NAME":"HAWK-2C","OBJECT_ID":"2021-006CT","EPOCH":"2026-04-26T15:08:28.475232","MEAN_MOTION":15.34031402,"ECCENTRICITY":0.0007708,"INCLINATION":97.2332,"RA_OF_ASC_NODE":161.9811,"ARG_OF_PERICENTER":39.3499,"MEAN_ANOMALY":320.8303,"EPHEMERIS_TYPE":0,"CLASSIFICATION_TYPE":"U","NORAD_CAT_ID":47502,"ELEMENT_SET_NO":999,"REV_AT_EPOCH":29159,"BSTAR":0.00024172,"MEAN_MOTION_DOT":7.889e-5,"MEAN_MOTION_DDOT":0},{"OBJECT_NAME":"HAWK-2A","OBJECT_ID":"2021-006CW","EPOCH":"2026-04-26T16:46:39.264384","MEAN_MOTION":15.34044659,"ECCENTRICITY":0.0007386,"INCLINATION":97.2375,"RA_OF_ASC_NODE":162.6953,"ARG_OF_PERICENTER":43.3437,"MEAN_ANOMALY":316.8386,"EPHEMERIS_TYPE":0,"CLASSIFICATION_TYPE":"U","NORAD_CAT_ID":47505,"ELEMENT_SET_NO":999,"REV_AT_EPOCH":29160,"BSTAR":0.00024242,"MEAN_MOTION_DOT":7.915e-5,"MEAN_MOTION_DDOT":0},{"OBJECT_NAME":"HAWK-2B","OBJECT_ID":"2021-006CZ","EPOCH":"2026-04-26T16:42:26.743968","MEAN_MOTION":15.34049493,"ECCENTRICITY":0.0007866,"INCLINATION":97.2246,"RA_OF_ASC_NODE":161.1088,"ARG_OF_PERICENTER":40.2481,"MEAN_ANOMALY":319.9343,"EPHEMERIS_TYPE":0,"CLASSIFICATION_TYPE":"U","NORAD_CAT_ID":47508,"ELEMENT_SET_NO":999,"REV_AT_EPOCH":29160,"BSTAR":0.00027627,"MEAN_MOTION_DOT":9.034e-5,"MEAN_MOTION_DDOT":0},{"OBJECT_NAME":"HAWK-3B","OBJECT_ID":"2021-059BE","EPOCH":"2026-04-26T11:38:59.016192","MEAN_MOTION":15.65443847,"ECCENTRICITY":0.00060683,"INCLINATION":97.6706,"RA_OF_ASC_NODE":308.4684,"ARG_OF_PERICENTER":153.2336,"MEAN_ANOMALY":206.9237,"EPHEMERIS_TYPE":0,"CLASSIFICATION_TYPE":"U","NORAD_CAT_ID":48931,"ELEMENT_SET_NO":999,"REV_AT_EPOCH":26975,"BSTAR":0.00058338492,"MEAN_MOTION_DOT":0.00058453,"MEAN_MOTION_DDOT":0},{"OBJECT_NAME":"HAWK-3C","OBJECT_ID":"2021-059BX","EPOCH":"2026-04-26T19:18:44.796096","MEAN_MOTION":15.65456414,"ECCENTRICITY":0.0006461,"INCLINATION":97.6837,"RA_OF_ASC_NODE":314.4097,"ARG_OF_PERICENTER":150.9919,"MEAN_ANOMALY":209.17,"EPHEMERIS_TYPE":0,"CLASSIFICATION_TYPE":"U","NORAD_CAT_ID":48948,"ELEMENT_SET_NO":999,"REV_AT_EPOCH":26980,"BSTAR":0.00044548,"MEAN_MOTION_DOT":0.00044559,"MEAN_MOTION_DDOT":0},{"OBJECT_NAME":"HAWK-3A","OBJECT_ID":"2021-059CG","EPOCH":"2026-04-26T19:18:33.971040","MEAN_MOTION":15.65461804,"ECCENTRICITY":0.0006169,"INCLINATION":97.6779,"RA_OF_ASC_NODE":311.6567,"ARG_OF_PERICENTER":150.8386,"MEAN_ANOMALY":209.3218,"EPHEMERIS_TYPE":0,"CLASSIFICATION_TYPE":"U","NORAD_CAT_ID":48957,"ELEMENT_SET_NO":999,"REV_AT_EPOCH":26980,"BSTAR":0.00044907,"MEAN_MOTION_DOT":0.00044926,"MEAN_MOTION_DDOT":0},{"OBJECT_NAME":"HAWK-5C","OBJECT_ID":"2022-057Y","EPOCH":"2026-04-26T20:43:47.568000","MEAN_MOTION":15.49509549,"ECCENTRICITY":0.000371,"INCLINATION":97.6523,"RA_OF_ASC_NODE":273.3258,"ARG_OF_PERICENTER":243.297,"MEAN_ANOMALY":116.7901,"EPHEMERIS_TYPE":0,"CLASSIFICATION_TYPE":"U","NORAD_CAT_ID":52754,"ELEMENT_SET_NO":999,"REV_AT_EPOCH":21839,"BSTAR":0.00037693,"MEAN_MOTION_DOT":0.00020693,"MEAN_MOTION_DDOT":0},{"OBJECT_NAME":"HAWK-5B","OBJECT_ID":"2022-057AA","EPOCH":"2026-04-26T16:04:37.746048","MEAN_MOTION":15.49507296,"ECCENTRICITY":0.0003906,"INCLINATION":97.6528,"RA_OF_ASC_NODE":271.4631,"ARG_OF_PERICENTER":239.0789,"MEAN_ANOMALY":121.0077,"EPHEMERIS_TYPE":0,"CLASSIFICATION_TYPE":"U","NORAD_CAT_ID":52756,"ELEMENT_SET_NO":999,"REV_AT_EPOCH":21836,"BSTAR":0.00042875,"MEAN_MOTION_DOT":0.00023559,"MEAN_MOTION_DDOT":0},{"OBJECT_NAME":"HAWK-5A","OBJECT_ID":"2022-057AB","EPOCH":"2026-04-26T20:43:15.280320","MEAN_MOTION":15.49509696,"ECCENTRICITY":0.0004139,"INCLINATION":97.6526,"RA_OF_ASC_NODE":272.5021,"ARG_OF_PERICENTER":240.9018,"MEAN_ANOMALY":119.1819,"EPHEMERIS_TYPE":0,"CLASSIFICATION_TYPE":"U","NORAD_CAT_ID":52757,"ELEMENT_SET_NO":999,"REV_AT_EPOCH":21839,"BSTAR":0.00038002,"MEAN_MOTION_DOT":0.00020866,"MEAN_MOTION_DDOT":0},{"OBJECT_NAME":"HAWK-6B","OBJECT_ID":"2023-011A","EPOCH":"2026-04-26T18:19:11.913312","MEAN_MOTION":15.22458593,"ECCENTRICITY":0.0002653,"INCLINATION":40.4992,"RA_OF_ASC_NODE":291.9028,"ARG_OF_PERICENTER":0.6822,"MEAN_ANOMALY":359.399,"EPHEMERIS_TYPE":0,"CLASSIFICATION_TYPE":"U","NORAD_CAT_ID":55324,"ELEMENT_SET_NO":999,"REV_AT_EPOCH":18000,"BSTAR":0.0002677,"MEAN_MOTION_DOT":6.136e-5,"MEAN_MOTION_DDOT":0},{"OBJECT_NAME":"HAWK-6C","OBJECT_ID":"2023-011C","EPOCH":"2026-04-26T19:52:45.028416","MEAN_MOTION":15.22461106,"ECCENTRICITY":0.0003264,"INCLINATION":40.4981,"RA_OF_ASC_NODE":288.3686,"ARG_OF_PERICENTER":348.5942,"MEAN_ANOMALY":11.4793,"EPHEMERIS_TYPE":0,"CLASSIFICATION_TYPE":"U","NORAD_CAT_ID":55326,"ELEMENT_SET_NO":999,"REV_AT_EPOCH":18002,"BSTAR":0.00023972,"MEAN_MOTION_DOT":5.474e-5,"MEAN_MOTION_DDOT":0},{"OBJECT_NAME":"HAWK-6A","OBJECT_ID":"2023-011D","EPOCH":"2026-04-26T19:52:47.942688","MEAN_MOTION":15.22459887,"ECCENTRICITY":0.0002997,"INCLINATION":40.4991,"RA_OF_ASC_NODE":289.9879,"ARG_OF_PERICENTER":344.7862,"MEAN_ANOMALY":15.2857,"EPHEMERIS_TYPE":0,"CLASSIFICATION_TYPE":"U","NORAD_CAT_ID":55327,"ELEMENT_SET_NO":999,"REV_AT_EPOCH":18002,"BSTAR":0.00023917,"MEAN_MOTION_DOT":5.461e-5,"MEAN_MOTION_DDOT":0}]
